CCSDS_OMM_VERS = 2.0
CREATION_DATE  = 
ORIGINATOR     = 

OBJECT_NAME    = CZ-2C R/B
OBJECT_ID      = 2022-132E
CENTER_NAME    = EARTH
REF_FRAME      = TEME
TIME_SYSTEM    = UTC
MEAN_ELEMENT_THEORY = SGP/SGP4

EPOCH          = 2026-01-29T22:49:54.306336
MEAN_MOTION    = 15.58499375
ECCENTRICITY   = .00169139
INCLINATION    = 97.2950
RA_OF_ASC_NODE = 32.2000
ARG_OF_PERICENTER = 228.8824
MEAN_ANOMALY   = 131.0973

EPHEMERIS_TYPE = 0
CLASSIFICATION_TYPE = U
NORAD_CAT_ID   = 54039
ELEMENT_SET_NO = 999
REV_AT_EPOCH   = 18433
BSTAR          = .66795264E-3
MEAN_MOTION_DOT = .51445E-3
MEAN_MOTION_DDOT = 0

CCSDS_OMM_VERS = 2.0
CREATION_DATE  = 
ORIGINATOR     = 

OBJECT_NAME    = GSLV R/B
OBJECT_ID      = 2022-138AN
CENTER_NAME    = EARTH
REF_FRAME      = TEME
TIME_SYSTEM    = UTC
MEAN_ELEMENT_THEORY = SGP/SGP4

EPOCH          = 2026-01-29T22:34:28.817184
MEAN_MOTION    = 14.96467685
ECCENTRICITY   = .00195847
INCLINATION    = 87.3842
RA_OF_ASC_NODE = 179.3295
ARG_OF_PERICENTER = 295.4110
MEAN_ANOMALY   = 64.5093

EPHEMERIS_TYPE = 0
CLASSIFICATION_TYPE = U
NORAD_CAT_ID   = 54149
ELEMENT_SET_NO = 999
REV_AT_EPOCH   = 17813
BSTAR          = .4414438E-3
MEAN_MOTION_DOT = .5054E-4
MEAN_MOTION_DDOT = 0

CCSDS_OMM_VERS = 2.0
CREATION_DATE  = 
ORIGINATOR     = 

OBJECT_NAME    = XRISM
OBJECT_ID      = 2023-137A
CENTER_NAME    = EARTH
REF_FRAME      = TEME
TIME_SYSTEM    = UTC
MEAN_ELEMENT_THEORY = SGP/SGP4

EPOCH          = 2026-01-30T01:38:45.305952
MEAN_MOTION    = 15.10995589
ECCENTRICITY   = .00079776
INCLINATION    = 31.0005
RA_OF_ASC_NODE = 173.3673
ARG_OF_PERICENTER = 11.9080
MEAN_ANOMALY   = 348.1746

EPHEMERIS_TYPE = 0
CLASSIFICATION_TYPE = U
NORAD_CAT_ID   = 57800
ELEMENT_SET_NO = 999
REV_AT_EPOCH   = 13194
BSTAR          = .4708513E-3
MEAN_MOTION_DOT = .8162E-4
MEAN_MOTION_DDOT = 0

CCSDS_OMM_VERS = 2.0
CREATION_DATE  = 
ORIGINATOR     = 

OBJECT_NAME    = ACS3
OBJECT_ID      = 2024-077B
CENTER_NAME    = EARTH
REF_FRAME      = TEME
TIME_SYSTEM    = UTC
MEAN_ELEMENT_THEORY = SGP/SGP4

EPOCH          = 2026-01-29T21:07:42.748896
MEAN_MOTION    = 13.87964269
ECCENTRICITY   = .0046875
INCLINATION    = 97.2280
RA_OF_ASC_NODE = 339.7143
ARG_OF_PERICENTER = 203.3583
MEAN_ANOMALY   = 156.5451

EPHEMERIS_TYPE = 0
CLASSIFICATION_TYPE = U
NORAD_CAT_ID   = 59588
ELEMENT_SET_NO = 999
REV_AT_EPOCH   = 8881
BSTAR          = .18508017E-1
MEAN_MOTION_DOT = .22248E-3
MEAN_MOTION_DDOT = 0

CCSDS_OMM_VERS = 2.0
CREATION_DATE  = 
ORIGINATOR     = 

OBJECT_NAME    = SZ-21 MODULE
OBJECT_ID      = 2025-246C
CENTER_NAME    = EARTH
REF_FRAME      = TEME
TIME_SYSTEM    = UTC
MEAN_ELEMENT_THEORY = SGP/SGP4

EPOCH          = 2026-01-30T04:45:17.279424
MEAN_MOTION    = 15.65663089
ECCENTRICITY   = .00034205
INCLINATION    = 41.4758
RA_OF_ASC_NODE = 79.7800
ARG_OF_PERICENTER = 256.7096
MEAN_ANOMALY   = 103.3364

EPHEMERIS_TYPE = 0
CLASSIFICATION_TYPE = U
NORAD_CAT_ID   = 66515
ELEMENT_SET_NO = 999
REV_AT_EPOCH   = 1203
BSTAR          = .38767462E-3
MEAN_MOTION_DOT = .4011E-3
MEAN_MOTION_DDOT = 0

